STARLINK-31273          
1 58846U 24017W   26068.69114578 -.00000205  00000+0  52105-5 0  9993
2 58846  53.1615 204.5084 0001375  74.9705 285.1448 15.30189946120051
TOMORROW-S2             
1 60485U 24149T   26068.75188364  .00008133  00000+0  27683-3 0  9990
2 60485  97.3857 150.0385 0001648 234.3331 125.7757 15.30674935 86869
